ZHONGXING-2C            
1 41021U 15063A   26158.50864546 -.00000309  00000+0  00000+0 0  9994
2 41021   0.2479  90.3577 0007613  95.7752 356.3126  1.00268886 38887
GSAT-15                 
1 41028U 15065A   26158.50673877 -.00000243  00000+0  00000+0 0  9995
2 41028   0.0483 113.9152 0004023 324.2740  93.6624  1.00271475 38700
BADR-7 (ARABSAT-6B)     
1 41029U 15065B   26158.20812331  .00000159  00000+0  00000+0 0  9998
2 41029   0.0394 238.6566 0003253 318.7338 159.1466  1.00270127 38661
LAOSAT 1                
1 41034U 15067A   26158.44237078 -.00000329  00000+0  00000+0 0  9991
2 41034   0.0377 198.5539 0002102 202.1707 142.8634  1.00267158 38767
TELSTAR 12V             
1 41036U 15068A   26158.41388186 -.00000104  00000+0  00000+0 0  9999
2 41036   0.0147  47.4971 0002428  26.5958 315.7357  1.00271454 38524
ELEKTRO-L 2             
1 41105U 15074A   26158.05735411 -.00000104  00000+0  00000+0 0  9990
2 41105   6.6683  70.6461 0001291 283.5448 267.4428  1.00272194 38407
COSMOS 2513             
1 41121U 15075A   26158.36140079 -.00000124  00000+0  00000+0 0  9995
2 41121   0.0781  99.8531 0003687 329.6914  36.5844  1.00272440 38450
EXPRESS-AMU1            
1 41191U 15082A   26158.28141387  .00000170  00000+0  00000+0 0  9994
2 41191   0.0025 354.6524 0002883  83.4961 314.9532  1.00269478 38168
GAOFEN-4                
1 41194U 15083A   26157.79613806 -.00000321  00000+0  00000+0 0  9992
2 41194   0.3301  83.7532 0004358 108.8481  94.9007  1.00269078 38425
BELINTERSAT-1           
1 41238U 16001A   26158.21323668  .00000121  00000+0  00000+0 0  9991
2 41238   0.0434 132.4012 0002141 262.0217 349.4667  1.00272946 38137
IRNSS-1E                
1 41241U 16003A   26157.65470183 -.00000294  00000+0  00000+0 0  9991
2 41241  33.2123  59.9028 0017895 179.5465   3.0470  1.00270004 37972
EUTELSAT 9B             
1 41310U 16005A   26158.34740519  .00000076  00000+0  00000+0 0  9997
2 41310   0.0558  70.5964 0001957 335.3811 343.8259  1.00272286 38010
SES-9                   
1 41380U 16013A   26158.34836683 -.00000331  00000+0  00000+0 0  9996
2 41380   0.0099 339.2741 0002383  98.5565  51.6383  1.00269544 37343
EUTELSAT 65 WEST A      
1 41382U 16014A   26158.47526906 -.00000262  00000+0  00000+0 0  9990
2 41382   0.0491   4.1169 0002379  62.9588 294.7099  1.00273234 37422
IRNSS-1F                
1 41384U 16015A   26158.49460542  .00000173  00000+0  00000+0 0  9998
2 41384   5.3248  97.0003 0016628 186.8293 182.6810  1.00277877 37570
BEIDOU-2 IGSO-6         
1 41434U 16021A   26157.01392066 -.00000145  00000+0  00000+0 0  9993
2 41434  60.2097  38.1520 0057221 231.5167  83.2996  1.00261920 37360
IRNSS-1G                
1 41469U 16027A   26158.29992729 -.00000319  00000+0  00000+0 0  9993
2 41469   5.1739  97.7019 0007472 352.4202  43.1435  1.00271155 37082
JCSAT-2B                
1 41471U 16028A   26158.44736227 -.00000151  00000+0  00000+0 0  9997
2 41471   0.0182 337.6328 0000952  98.0036 135.2743  1.00271169 37039
THAICOM 8               
1 41552U 16031A   26158.43249073 -.00000107  00000+0  00000+0 0  9999
2 41552   0.0636  43.7933 0003818  13.1550  73.1287  1.00270818 36620
INTELSAT 31 (IS-31)     
1 41581U 16035A   26158.39810845 -.00000137  00000+0  00000+0 0  9994
2 41581   0.0186 259.0986 0000826 334.9690  70.0155  1.00271889 36581
BEIDOU-2 G7             
1 41586U 16037A   26158.51011880 -.00000338  00000+0  00000+0 0  9990
2 41586   1.6954  69.2366 0007303   1.8565 119.0159  1.00269821  6798
ABS-2A (MONGOLSAT-1)    
1 41588U 16038A   26158.43171073  .00000000  00000+0  00000+0 0  9990
2 41588   0.0171 328.7720 0001389  60.2817  96.9514  1.00268308 36619
EUTELSAT 117 WEST B     
1 41589U 16038B   26158.46504235  .00000003  00000+0  00000+0 0  9997
2 41589   0.0035 134.3006 0000488 220.3209 311.6472  1.00271344 36568
BRISAT                  
1 41591U 16039A   26158.33169956 -.00000182  00000+0  00000+0 0  9993
2 41591   0.0151 297.3124 0002229 132.6846  95.6599  1.00270897 36514
ECHOSTAR 18             
1 41592U 16039B   26158.33345177 -.00000268  00000+0  00000+0 0  9990
2 41592   0.0178 341.3313 0001454 107.5478 225.5456  1.00270272 36529
MUOS-5                  
1 41622U 16041A   26158.39646177 -.00000102  00000+0  00000+0 0  9994
2 41622   2.2256 301.4518 0196813 260.8733  90.9704  1.00270868 36980
TIANTONG-1 1            
1 41725U 16048A   26158.50829880 -.00000304  00000+0  00000+0 0  9996
2 41725   3.8300  43.3292 0006112  41.9425  95.0579  1.00271698 36179
JCSAT-16                
1 41729U 16050A   26158.52197777 -.00000236  00000+0  00000+0 0  9992
2 41729   0.0176 339.7228 0001015 104.2354 143.8242  1.00270593 35974
USA 270                 
1 41744U 16052A   26156.41948030  .00000091  00000+0  00000+0 0  9991
2 41744   4.1687  77.3372 0008506 337.2537 174.5297  1.00283253 28016
USA 271                 
1 41745U 16052B   26156.30233265 -.00000347  00000+0  00000+0 0  9992
2 41745   4.1397  77.4076 0010790 157.5545 250.4094  1.00263603 27809
INTELSAT 36 (IS-36)     
1 41747U 16053A   26158.43049740 -.00000010  00000+0  00000+0 0  9991
2 41747   0.0098 351.2411 0001878 348.9810 139.0910  1.00270281 35862
INSAT-3DR               
1 41752U 16054A   26158.43153741 -.00000062  00000+0  00000+0 0  9992
2 41752   0.0803  87.6650 0010364 186.9054 210.6145  1.00270726 35722
