OBJECT_NAME,OBJECT_ID,EPOCH,MEAN_MOTION,ECCENTRICITY,INCLINATION,RA_OF_ASC_NODE,ARG_OF_PERICENTER,MEAN_ANOMALY,EPHEMERIS_TYPE,CLASSIFICATION_TYPE,NORAD_CAT_ID,ELEMENT_SET_NO,REV_AT_EPOCH,BSTAR,MEAN_MOTION_DOT,MEAN_MOTION_DDOT
ZHONGXING-2C,2015-063A,2026-06-07T12:12:26.967744,1.00268886,.0007613,0.2479,90.3577,95.7752,356.3126,0,U,41021,999,3888,0,-.309E-5,0
GSAT-15,2015-065A,2026-06-07T12:09:42.229728,1.00271475,.0004023,0.0483,113.9152,324.2740,93.6624,0,U,41028,999,3870,0,-.243E-5,0
BADR-7 (ARABSAT-6B),2015-065B,2026-06-07T04:59:41.853984,1.00270127,.0003253,0.0394,238.6566,318.7338,159.1466,0,U,41029,999,3866,0,.159E-5,0
LAOSAT 1,2015-067A,2026-06-07T10:37:00.835392,1.00267158,.0002102,0.0377,198.5539,202.1707,142.8634,0,U,41034,999,3876,0,-.329E-5,0
TELSTAR 12V,2015-068A,2026-06-07T09:55:59.392704,1.00271454,.0002428,0.0147,47.4971,26.5958,315.7357,0,U,41036,999,3852,0,-.104E-5,0
ELEKTRO-L 2,2015-074A,2026-06-07T01:22:35.395104,1.00272194,.0001291,6.6683,70.6461,283.5448,267.4428,0,U,41105,999,3840,0,-.104E-5,0
COSMOS 2513,2015-075A,2026-06-07T08:40:25.028256,1.00272440,.0003687,0.0781,99.8531,329.6914,36.5844,0,U,41121,999,3845,0,-.124E-5,0
EXPRESS-AMU1,2015-082A,2026-06-07T06:45:14.158368,1.00269478,.0002883,0.0025,354.6524,83.4961,314.9532,0,U,41191,999,3816,0,.17E-5,0
GAOFEN-4,2015-083A,2026-06-06T19:06:26.328384,1.00269078,.00043587,0.3301,83.7532,108.8481,94.9007,0,U,41194,999,3842,0,-.321E-5,0
BELINTERSAT-1,2016-001A,2026-06-07T05:07:03.649152,1.00272946,.0002141,0.0434,132.4012,262.0217,349.4667,0,U,41238,999,3813,0,.121E-5,0
IRNSS-1E,2016-003A,2026-06-06T15:42:46.238112,1.00270004,.00178958,33.2123,59.9028,179.5465,3.0470,0,U,41241,999,3797,0,-.294E-5,0
EUTELSAT 9B,2016-005A,2026-06-07T08:20:15.808416,1.00272286,.0001957,0.0558,70.5964,335.3811,343.8259,0,U,41310,999,3801,0,.76E-6,0
SES-9,2016-013A,2026-06-07T08:21:38.894112,1.00269544,.0002383,0.0099,339.2741,98.5565,51.6383,0,U,41380,999,3734,0,-.331E-5,0
EUTELSAT 65 WEST A,2016-014A,2026-06-07T11:24:23.246784,1.00273234,.0002379,0.0491,4.1169,62.9588,294.7099,0,U,41382,999,3742,0,-.262E-5,0
IRNSS-1F,2016-015A,2026-06-07T11:52:13.908288,1.00277877,.0016628,5.3248,97.0003,186.8293,182.6810,0,U,41384,999,3757,0,.173E-5,0
BEIDOU-2 IGSO-6,2016-021A,2026-06-06T00:20:02.745024,1.00261920,.00572211,60.2097,38.1520,231.5167,83.2996,0,U,41434,999,3736,0,-.145E-5,0
IRNSS-1G,2016-027A,2026-06-07T07:11:53.717856,1.00271155,.0007472,5.1739,97.7019,352.4202,43.1435,0,U,41469,999,3708,0,-.319E-5,0
JCSAT-2B,2016-028A,2026-06-07T10:44:12.100128,1.00271169,.0000952,0.0182,337.6328,98.0036,135.2743,0,U,41471,999,3703,0,-.151E-5,0
THAICOM 8,2016-031A,2026-06-07T10:22:47.199072,1.00270818,.0003818,0.0636,43.7933,13.1550,73.1287,0,U,41552,999,3662,0,-.107E-5,0
INTELSAT 31 (IS-31),2016-035A,2026-06-07T09:33:16.570080,1.00271889,.0000826,0.0186,259.0986,334.9690,70.0155,0,U,41581,999,3658,0,-.137E-5,0
BEIDOU-2 G7,2016-037A,2026-06-07T12:14:34.264320,1.00269821,.0007303,1.6954,69.2366,1.8565,119.0159,0,U,41586,999,679,0,-.338E-5,0
ABS-2A (MONGOLSAT-1),2016-038A,2026-06-07T10:21:39.807072,1.00268308,.0001389,0.0171,328.7720,60.2817,96.9514,0,U,41588,999,3661,0,0,0
EUTELSAT 117 WEST B,2016-038B,2026-06-07T11:09:39.659040,1.00271344,.0000488,0.0035,134.3006,220.3209,311.6472,0,U,41589,999,3656,0,.3E-7,0
BRISAT,2016-039A,2026-06-07T07:57:38.841984,1.00270897,.0002229,0.0151,297.3124,132.6846,95.6599,0,U,41591,999,3651,0,-.182E-5,0
ECHOSTAR 18,2016-039B,2026-06-07T08:00:10.232928,1.00270272,.0001454,0.0178,341.3313,107.5478,225.5456,0,U,41592,999,3652,0,-.268E-5,0
MUOS-5,2016-041A,2026-06-07T09:30:54.296928,1.00270868,.0196813,2.2256,301.4518,260.8733,90.9704,0,U,41622,999,3698,0,-.102E-5,0
TIANTONG-1 1,2016-048A,2026-06-07T12:11:57.016320,1.00271698,.0006112,3.8300,43.3292,41.9425,95.0579,0,U,41725,999,3617,0,-.304E-5,0
JCSAT-16,2016-050A,2026-06-07T12:31:38.879328,1.00270593,.0001015,0.0176,339.7228,104.2354,143.8242,0,U,41729,999,3597,0,-.236E-5,0
USA 270,2016-052A,2026-06-05T10:04:03.097920,1.00283253,.0008506,4.1687,77.3372,337.2537,174.5297,0,U,41744,999,2801,0,.91E-6,0
USA 271,2016-052B,2026-06-05T07:15:21.540960,1.00263603,.001079,4.1397,77.4076,157.5545,250.4094,0,U,41745,999,2780,0,-.347E-5,0
INTELSAT 36 (IS-36),2016-053A,2026-06-07T10:19:54.975360,1.00270281,.0001878,0.0098,351.2411,348.9810,139.0910,0,U,41747,999,3586,0,-.1E-6,0
INSAT-3DR,2016-054A,2026-06-07T10:21:24.832224,1.00270726,.0010364,0.0803,87.6650,186.9054,210.6145,0,U,41752,999,3572,0,-.62E-6,0
